NORAD_CAT_ID,OBJECT_NAME,OBJECT_TYPE,EPOCH,MEAN_MOTION,ECCENTRICITY,INCLINATION,RA_OF_ASC_NODE,ARG_OF_PERICENTER,MEAN_ANOMALY,BSTAR,MEAN_MOTION_DOT,MEAN_MOTION_DDOT,TLE_LINE0,TLE_LINE1,TLE_LINE2,SEMIMAJOR_AXIS,PERIOD,APOGEE,PERIGEE,DECAYED
52685.0,STARLINK-4029,PAYLOAD,2023-12-22 19:10:15,15.08840214,0.0001302,53.2168,170.8847,93.1977,266.9164,7.3001e-05,8.74e-06,0.0,0 STARLINK-4029,1 52685U 22053AF  23356.79879463  .00000874  00000-0  73001-4 0  9994,2 52685  53.2168 170.8847 0001302  93.1977 266.9164 15.08840214 88788,6917.88,95.438,540.645,538.844,0.0
52685.0,STARLINK-4029,PAYLOAD,2023-12-23 20:36:25,15.08844824,0.0001247,53.2168,166.1266,81.8457,278.2677,0.00012308,1.672e-05,0.0,0 STARLINK-4029,1 52685U 22053AF  23357.85863167  .00001672  00000-0  12308-3 0  9995,2 52685  53.2168 166.1266 0001247  81.8457 278.2677 15.08844824 89312,6917.866,95.437,540.593,538.868,0.0
52685.0,STARLINK-4029,PAYLOAD,2023-12-24 10:54:54,15.08844009,0.0001344,53.2169,163.4525,74.0897,286.0243,8.3929e-05,1.048e-05,0.0,0 STARLINK-4029,1 52685U 22053AF  23358.45479328  .00001048  00000-0  83929-4 0  9999,2 52685  53.2169 163.4525 0001344  74.0897 286.0243 15.08844009 89402,6917.868,95.437,540.663,538.803,0.0
52685.0,STARLINK-4029,PAYLOAD,2023-12-24 18:51:49,15.08848295,0.0001426,53.2173,161.966,72.0592,288.0556,0.00011326,1.515e-05,0.0,0 STARLINK-4029,1 52685U 22053AF  23358.78598897  .00001515  00000-0  11326-3 0  9998,2 52685  53.2173 161.9660 0001426  72.0592 288.0556 15.08848295 89456,6917.855,95.437,540.707,538.734,0.0
52685.0,STARLINK-4029,PAYLOAD,2023-12-25 10:45:41,15.08845223,0.0001369,53.2172,158.9956,81.0611,279.0536,2.6602e-05,1.36e-06,0.0,0 STARLINK-4029,1 52685U 22053AF  23359.44839247  .00000136  00000-0  26602-4 0  9991,2 52685  53.2172 158.9956 0001369  81.0611 279.0536 15.08845223 89183,6917.864,95.437,540.676,538.782,0.0
52685.0,STARLINK-4029,PAYLOAD,2023-12-25 17:07:13,15.08843978,0.000131,53.2176,157.8041,89.7298,270.3844,-1.0673e-05,-4.58e-06,0.0,0 STARLINK-4029,1 52685U 22053AF  23359.71335245 -.00000458  00000-0 -10673-4 0  9990,2 52685  53.2176 157.8041 0001310  89.7298 270.3844 15.08843978 89598,6917.868,95.437,540.639,538.827,0.0
52685.0,STARLINK-4029,PAYLOAD,2023-12-26 10:36:28,15.08839758,0.000166,53.2176,154.5335,87.412,272.7062,-1.7458e-05,-5.66e-06,0.0,0 STARLINK-4029,1 52685U 22053AF  23360.44199573 -.00000566  00000-0 -17458-4 0  9992,2 52685  53.2176 154.5335 0001660  87.4120 272.7062 15.08839758 89336,6917.881,95.438,540.894,538.598,0.0
52685.0,STARLINK-4029,PAYLOAD,2023-12-26 13:47:14,15.08837803,0.0001224,53.2173,153.9381,81.953,278.1601,-2.0122e-07,-2.91e-06,0.0,0 STARLINK-4029,1 52685U 22053AF  23360.57447559 -.00000291  00000-0 -20122-6 0  9995,2 52685  53.2173 153.9381 0001224  81.9530 278.1601 15.08837803 89728,6917.887,95.438,540.599,538.905,0.0
52685.0,STARLINK-4029,PAYLOAD,2023-12-26 16:58:00,15.08839542,0.0001341,53.2176,153.3438,81.1631,278.9513,-1.031e-05,-4.52e-06,0.0,0 STARLINK-4029,1 52685U 22053AF  23360.70695500 -.00000452  00000-0 -10310-4 0  9996,2 52685  53.2176 153.3438 0001341  81.1631 278.9513 15.08839542 89746,6917.882,95.438,540.674,538.819,0.0
52685.0,STARLINK-4029,PAYLOAD,2023-12-27 13:38:01,15.0883665,0.0001371,53.2177,149.4782,87.8856,272.2293,5.3849e-05,5.69e-06,0.0,0 STARLINK-4029,1 52685U 22053AF  23361.56807629  .00000569  00000-0  53849-4 0  9999,2 52685  53.2177 149.4782 0001371  87.8856 272.2293 15.08836650 89873,6917.891,95.438,540.704,538.807,0.0
52685.0,STARLINK-4029,PAYLOAD,2023-12-27 16:48:47,15.08838014,0.0001391,53.218,148.8835,90.705,269.4101,6.1821e-05,6.96e-06,0.0,0 STARLINK-4029,1 52685U 22053AF  23361.70055535  .00000696  00000-0  61821-4 0  9996,2 52685  53.2180 148.8835 0001391  90.7050 269.4101 15.08838014 89524,6917.886,95.438,540.714,538.789,0.0
52685.0,STARLINK-4029,PAYLOAD,2023-12-28 13:28:48,15.08836588,0.0001331,53.2181,145.0171,88.4517,271.6628,5.3129e-05,5.58e-06,0.0,0 STARLINK-4029,1 52685U 22053AF  23362.56167824  .00000558  00000-0  53129-4 0  9995,2 52685  53.2181 145.0171 0001331  88.4517 271.6628 15.08836588 90023,6917.891,95.438,540.677,538.835,0.0
52685.0,STARLINK-4029,PAYLOAD,2023-12-28 19:50:21,15.08841836,0.0001275,53.2176,143.8249,88.2929,271.821,7.0926e-05,8.41e-06,0.0,0 STARLINK-4029,1 52685U 22053AF  23362.82663379  .00000841  00000-0  70926-4 0  9999,2 52685  53.2176 143.8249 0001275  88.2929 271.8210 15.08841836 90066,6917.875,95.437,540.622,538.858,0.0
52685.0,STARLINK-4029,PAYLOAD,2023-12-29 08:33:27,15.0883279,0.000126,53.2173,141.4401,124.4145,235.6967,-5.512e-05,-1.165e-05,0.0,0 STARLINK-4029,1 52685U 22053AF  23363.35656529 -.00001165  00000-0 -55120-4 0  9998,2 52685  53.2173 141.4401 0001260 124.4145 235.6967 15.08832790 89776,6917.902,95.438,540.639,538.896,0.0
52685.0,STARLINK-4029,PAYLOAD,2023-12-29 14:54:59,15.08836662,0.0001484,53.2175,140.2565,108.7595,251.3558,1.1864e-05,-9.9e-07,0.0,0 STARLINK-4029,1 52685U 22053AF  23363.62152070 -.00000099  00000-0  11864-4 0  9991,2 52685  53.2175 140.2565 0001484 108.7595 251.3558 15.08836662 90188,6917.891,95.438,540.782,538.729,0.0
52685.0,STARLINK-4029,PAYLOAD,2023-12-29 16:30:22,15.08838006,0.0001283,53.2178,139.9606,90.1664,269.9475,2.7356e-05,1.47e-06,0.0,0 STARLINK-4029,1 52685U 22053AF  23363.68776025  .00000147  00000-0  27356-4 0  9995,2 52685  53.2178 139.9606 0001283  90.1664 269.9475 15.08838006 89826,6917.886,95.438,540.639,538.864,0.0
52685.0,STARLINK-4029,PAYLOAD,2023-12-30 14:45:46,15.08843061,0.0001244,53.2173,135.798,94.9823,265.1311,-1.6958e-06,-3.15e-06,0.0,0 STARLINK-4029,1 52685U 22053AF  23364.61512028 -.00000315  00000-0 -16958-5 0  9996,2 52685  53.2173 135.7980 0001244  94.9823 265.1311 15.08843061 90338,6917.871,95.437,540.597,538.875,0.0
52685.0,STARLINK-4029,PAYLOAD,2023-12-30 17:56:32,15.08845678,0.0001336,53.2178,135.2036,106.5417,253.5722,2.6352e-06,-2.46e-06,0.0,0 STARLINK-4029,1 52685U 22053AF  23364.74759823 -.00000246  00000-0  26352-5 0  9997,2 52685  53.2178 135.2036 0001336 106.5417 253.5722 15.08845678 89983,6917.863,95.437,540.652,538.804,0.0
52685.0,STARLINK-4029,PAYLOAD,2023-12-31 08:15:01,15.08834329,0.0001393,53.2182,132.528,97.0348,263.0803,7.0538e-05,8.35e-06,0.0,0 STARLINK-4029,1 52685U 22053AF  23365.34376475  .00000835  00000-0  70538-4 0  9999,2 52685  53.2182 132.5280 0001393  97.0348 263.0803 15.08834329 90078,6917.898,95.438,540.726,538.799,0.0
52685.0,STARLINK-4029,PAYLOAD,2023-12-31 16:11:56,15.0883778,0.0001434,53.2183,131.0412,80.5557,279.5597,7.9509e-05,9.78e-06,0.0,0 STARLINK-4029,1 52685U 22053AF  23365.67496417  .00000978  00000-0  79509-4 0  9999,2 52685  53.2183 131.0412 0001434  80.5557 279.5597 15.08837780 90497,6917.887,95.438,540.744,538.76,0.0
52685.0,STARLINK-4029,PAYLOAD,2024-01-01 14:27:20,15.0884224,0.0001448,53.2181,126.8781,88.7544,271.3614,1.8018e-05,-1e-08,0.0,0 STARLINK-4029,1 52685U 22053AF  24001.60232393 -.00000001  00000-0  18018-4 0  9997,2 52685  53.2181 126.8781 0001448  88.7544 271.3614 15.08842240 90630,6917.874,95.437,540.74,538.737,0.0
52685.0,STARLINK-4029,PAYLOAD,2024-01-02 14:18:07,15.08844334,0.0001665,53.2179,122.4181,66.4531,293.6636,7.7354e-05,9.43e-06,0.0,0 STARLINK-4029,1 52685U 22053AF  24002.59592131  .00000943  00000-0  77354-4 0  9997,2 52685  53.2179 122.4181 0001665  66.4531 293.6636 15.08844334 90786,6917.867,95.437,540.884,538.58,0.0
52685.0,STARLINK-4029,PAYLOAD,2024-01-02 17:28:53,15.08850124,0.0001459,53.2173,121.8219,75.2677,284.8477,0.00011195,1.495e-05,0.0,0 STARLINK-4029,1 52685U 22053AF  24002.72839520  .00001495  00000-0  11195-3 0  9991,2 52685  53.2173 121.8219 0001459  75.2677 284.8477 15.08850124 90436,6917.849,95.437,540.724,538.705,0.0
52685.0,STARLINK-4029,PAYLOAD,2024-01-03 10:58:08,15.08842717,0.0001862,53.2172,118.5455,127.0077,233.1086,-3.9068e-05,-9.1e-06,0.0,0 STARLINK-4029,1 52685U 22053AF  24003.45704160 -.00000910  00000-0 -39068-4 0  9996,2 52685  53.2172 118.5455 0001862 127.0077 233.1086 15.08842717 90542,6917.872,95.437,541.025,538.449,0.0
52685.0,STARLINK-4029,PAYLOAD,2024-01-03 14:08:55,15.08837126,0.0001434,53.218,117.956,96.0398,264.0758,-1.2321e-06,-3.08e-06,0.0,0 STARLINK-4029,1 52685U 22053AF  24003.58952653 -.00000308  00000-0 -12321-5 0  9997,2 52685  53.2180 117.9560 0001434  96.0398 264.0758 15.08837126 90937,6917.889,95.438,540.746,538.762,0.0
52685.0,STARLINK-4029,PAYLOAD,2024-01-04 12:24:18,15.08805006,0.0002241,53.2172,113.7902,144.361,215.7532,0.00049447,7.583e-05,0.0,0 STARLINK-4029,1 52685U 22053AF  24004.51688485  .00007583  00000-0  49447-3 0  9997,2 52685  53.2172 113.7902 0002241 144.3610 215.7532 15.08805006 90703,6917.987,95.44,541.403,538.302,0.0
52685.0,STARLINK-4029,PAYLOAD,2024-01-04 13:59:41,15.08849142,0.0001269,53.2173,113.4946,95.047,265.0667,-5.4412e-05,-1.154e-05,0.0,0 STARLINK-4029,1 52685U 22053AF  24004.58312189 -.00001154  00000-0 -54412-4 0  9998,2 52685  53.2173 113.4946 0001269  95.0470 265.0667 15.08849142 91082,6917.852,95.437,540.595,538.84,0.0
52685.0,STARLINK-4029,PAYLOAD,2024-01-05 12:15:06,15.08834197,0.0001361,53.2174,109.3325,86.2498,273.865,4.9973e-05,5.07e-06,0.0,0 STARLINK-4029,1 52685U 22053AF  24005.51049081  .00000507  00000-0  49973-4 0  9995,2 52685  53.2174 109.3325 0001361  86.2498 273.8650 15.08834197 90850,6917.898,95.438,540.705,538.822,0.0
52685.0,STARLINK-4029,PAYLOAD,2024-01-05 13:50:29,15.08836746,0.0001429,53.2173,109.0345,93.7973,266.3183,5.3619e-05,5.65e-06,0.0,0 STARLINK-4029,1 52685U 22053AF  24005.57672912  .00000565  00000-0  53619-4 0  9992,2 52685  53.2173 109.0345 0001429  93.7973 266.3183 15.08836746 91237,6917.89,95.438,540.744,538.767,0.0
52685.0,STARLINK-4029,PAYLOAD,2024-01-05 17:01:15,15.08837615,0.0001398,53.2173,108.4393,93.8942,266.221,7.3477e-05,8.82e-06,0.0,0 STARLINK-4029,1 52685U 22053AF  24005.70920820  .00000882  00000-0  73477-4 0  9997,2 52685  53.2173 108.4393 0001398  93.8942 266.2210 15.08837615 91253,6917.888,95.438,540.72,538.786,0.0
